$$SOE
2459580.500000000, A.D. 2022-Jan-01 00:00:00.0000, -2.722001996615329E+08, -1.719363420555465E+08, 2.113726373648711E+07,
2459587.500000000, A.D. 2022-Jan-08 00:00:00.0000, -2.661924565363009E+08, -1.829194832805932E+08, 2.201484735395170E+07,
2459594.500000000, A.D. 2022-Jan-15 00:00:00.0000, -2.598039027586238E+08, -1.936409524169794E+08, 2.286093749543151E+07,
2459601.500000000, A.D. 2022-Jan-22 00:00:00.0000, -2.530474422881489E+08, -2.040882207127399E+08, 2.367465490738777E+07,
2459608.500000000, A.D. 2022-Jan-29 00:00:00.0000, -2.459363127519565E+08, -2.142494554672765E+08, 2.445519072873148E+07,
2459615.500000000, A.D. 2022-Feb-05 00:00:00.0000, -2.384840461819381E+08, -2.241135197680952E+08, 2.520180571504226E+07,
2459622.500000000, A.D. 2022-Feb-12 00:00:00.0000, -2.307044290866196E+08, -2.336699708780342E+08, 2.591382898760092E+07,
2459629.500000000, A.D. 2022-Feb-19 00:00:00.0000, -2.226114632976940E+08, -2.429090551164611E+08, 2.659065664459434E+07,
2459636.500000000, A.D. 2022-Feb-26 00:00:00.0000, -2.142193289911680E+08, -2.518217001661575E+08, 2.723175031675948E+07,
2459643.500000000, A.D. 2022-Mar-05 00:00:00.0000, -2.055423497882277E+08, -2.603995056294377E+08, 2.783663562207605E+07,
2459650.500000000, A.D. 2022-Mar-12 00:00:00.0000, -1.965949597592678E+08, -2.686347321044230E+08, 2.840490051269013E+07,
2459657.500000000, A.D. 2022-Mar-19 00:00:00.0000, -1.873916722907638E+08, -2.765202889527754E+08, 2.893619352869767E+07,
2459664.500000000, A.D. 2022-Mar-26 00:00:00.0000, -1.779470508082966E+08, -2.840497209514951E+08, 2.943022197430953E+07,
2459671.500000000, A.D. 2022-Apr-02 00:00:00.0000, -1.682756812853550E+08, -2.912171940559899E+08, 2.988675002144474E+07,
2459678.500000000, A.D. 2022-Apr-09 00:00:00.0000, -1.583921462435444E+08, -2.980174804287764E+08, 3.030559672928910E+07,
2459685.500000000, A.D. 2022-Apr-16 00:00:00.0000, -1.483109998480522E+08, -3.044459422330787E+08, 3.068663401185144E+07,
2459692.500000000, A.D. 2022-Apr-23 00:00:00.0000, -1.380467453188451E+08, -3.104985132578859E+08, 3.102978476977120E+07,
2459699.500000000, A.D. 2022-Apr-30 00:00:00.0000, -1.276138164763831E+08, -3.161716807653210E+08, 3.133502118633951E+07,
2459706.500000000, A.D. 2022-May-07 00:00:00.0000, -1.170265603073959E+08, -3.214624696701483E+08, 3.160236275781918E+07,
2459713.500000000, A.D. 2022-May-14 00:00:00.0000, -1.062992191076986E+08, -3.263684261347494E+08, 3.183187419049367E+07,
2459720.500000000, A.D. 2022-May-21 00:00:00.0000, -9.544591417319833E+07, -3.308875999246764E+08, 3.202366342216562E+07,
2459727.500000000, A.D. 2022-May-28 00:00:00.0000, -8.448063145110986E+07, -3.350185265729523E+08, 3.217787974071361E+07,
2459734.500000000, A.D. 2022-Jun-04 00:00:00.0000, -7.341720880256256E+07, -3.387602097437479E+08, 3.229471195376892E+07,
2459741.500000000, A.D. 2022-Jun-11 00:00:00.0000, -6.226932465607141E+07, -3.421121038613886E+08, 3.237438659984906E+07,
2459748.500000000, A.D. 2022-Jun-18 00:00:00.0000, -5.105048793432028E+07, -3.450740970529665E+08, 3.241716620125984E+07,
2459755.500000000, A.D. 2022-Jun-25 00:00:00.0000, -3.977402914562045E+07, -3.476464944945932E+08, 3.242334755647217E+07,
2459762.500000000, A.D. 2022-Jul-02 00:00:00.0000, -2.845309242855438E+07, -3.498300022786434E+08, 3.239326005782643E+07,
2459769.500000000, A.D. 2022-Jul-09 00:00:00.0000, -1.710062808457123E+07, -3.516257116707137E+08, 3.232726401671374E+07,
2459776.500000000, A.D. 2022-Jul-16 00:00:00.0000, -5.729385581962544E+06, -3.530350827127891E+08, 3.222574909286901E+07,
2459783.500000000, A.D. 2022-Jul-23 00:00:00.0000, 5.648090838860980E+06, -3.540599271261787E+08, 3.208913303793222E+07,
2459790.500000000, A.D. 2022-Jul-30 00:00:00.0000, 1.701946410973296E+07, -3.547023938916404E+08, 3.191786047247930E+07,
2459797.500000000, A.D. 2022-Aug-06 00:00:00.0000, 2.837260749285193E+07, -3.549649568784503E+08, 3.171240142008500E+07,
2459804.500000000, A.D. 2022-Aug-13 00:00:00.0000, 3.969560819152177E+07, -3.548504017841908E+08, 3.147324989966501E+07,
2459811.500000000, A.D. 2022-Aug-20 00:00:00.0000, 5.097676990339419E+07, -3.543618128989332E+08, 3.120092267894280E+07,
2459818.500000000, A.D. 2022-Aug-27 00:00:00.0000, 6.220461444143491E+07, -3.535025604259101E+08, 3.089595812291108E+07,
2459825.500000000, A.D. 2022-Sep-03 00:00:00.0000, 7.336788272499053E+07, -3.522762884712613E+08, 3.055891510463862E+07,
2459832.500000000, A.D. 2022-Sep-10 00:00:00.0000, 8.445553528273684E+07, -3.506869036774453E+08, 3.019037197075857E+07,
2459839.500000000, A.D. 2022-Sep-17 00:00:00.0000, 9.545675234669606E+07, -3.487385644975082E+08, 2.979092555699545E+07,
2459846.500000000, A.D. 2022-Sep-24 00:00:00.0000, 1.063609336461326E+08, -3.464356711553588E+08, 2.936119024232061E+07,
2459853.500000000, A.D. 2022-Oct-01 00:00:00.0000, 1.171576981870802E+08, -3.437828563088487E+08, 2.890179701665945E+07,
2459860.500000000, A.D. 2022-Oct-08 00:00:00.0000, 1.278368844667019E+08, -3.407849758873767E+08, 2.841339256629834E+07,
2459867.500000000, A.D. 2022-Oct-15 00:00:00.0000, 1.383885502287873E+08, -3.374470988962315E+08, 2.789663855882533E+07,
2459874.500000000, A.D. 2022-Oct-22 00:00:00.0000, 1.488029696140236E+08, -3.337744978590654E+08, 2.735221118769917E+07,
2459881.500000000, A.D. 2022-Oct-29 00:00:00.0000, 1.590706302373261E+08, -3.297726424768586E+08, 2.678080053262657E+07,
2459888.500000000, A.D. 2022-Nov-05 00:00:00.0000, 1.691822323256953E+08, -3.254471937488520E+08, 2.618310976506113E+07,
2459895.500000000, A.D. 2022-Nov-12 00:00:00.0000, 1.791286879834452E+08, -3.208039972761170E+08, 2.555985448093036E+07,
2459902.500000000, A.D. 2022-Nov-19 00:00:00.0000, 1.889011198944752E+08, -3.158490766886638E+08, 2.491176214684433E+07,
2459909.500000000, A.D. 2022-Nov-26 00:00:00.0000, 1.984908597511615E+08, -3.105886275795197E+08, 2.423957160150395E+07,
2459916.500000000, A.D. 2022-Dec-03 00:00:00.0000, 2.078894466014794E+08, -3.050290119436326E+08, 2.354403259451358E+07,
2459923.500000000, A.D. 2022-Dec-10 00:00:00.0000, 2.170886251827869E+08, -2.991767530894198E+08, 2.282590535831618E+07,
2459930.500000000, A.D. 2022-Dec-17 00:00:00.0000, 2.260803442863849E+08, -2.930385310333627E+08, 2.208596020691782E+07,
2459937.500000000, A.D. 2022-Dec-24 00:00:00.0000, 2.348567552789415E+08, -2.866211784262811E+08, 2.132497714342354E+07,
2459944.500000000, A.D. 2022-Dec-31 00:00:00.0000, 2.434102111547895E+08, -2.799316768845036E+08, 2.054374544971384E+07,
2459951.500000000, A.D. 2023-Jan-07 00:00:00.0000, 2.517332662594066E+08, -2.729771527443802E+08, 1.974306332338439E+07,
2459958.500000000, A.D. 2023-Jan-14 00:00:00.0000, 2.598186747356551E+08, -2.657648717253341E+08, 1.892373778105128E+07,
2459965.500000000, A.D. 2023-Jan-21 00:00:00.0000, 2.676593870667351E+08, -2.583022356567806E+08, 1.808658462619369E+07,
2459972.500000000, A.D. 2023-Jan-28 00:00:00.0000, 2.752485484027699E+08, -2.505967814490654E+08, 1.723242812800355E+07,
2459979.500000000, A.D. 2023-Feb-04 00:00:00.0000, 2.825794984803508E+08, -2.426561792691458E+08, 1.636210067727147E+07,
2459986.500000000, A.D. 2023-Feb-11 00:00:00.0000, 2.896457713540288E+08, -2.344882301035095E+08, 1.547644256730153E+07,
2459993.500000000, A.D. 2023-Feb-18 00:00:00.0000, 2.964410948879786E+08, -2.261008635177636E+08, 1.457630183687985E+07,
2460000.500000000, A.D. 2023-Feb-25 00:00:00.0000, 3.029593902815266E+08, -2.175021357588381E+08, 1.366253413619421E+07,
2460007.500000000, A.D. 2023-Mar-04 00:00:00.0000, 3.091947717419109E+08, -2.087002281645111E+08, 1.273600260613220E+07,
2460014.500000000, A.D. 2023-Mar-11 00:00:00.0000, 3.151415463440461E+08, -1.997034458635346E+08, 1.179757776674543E+07,
2460021.500000000, A.D. 2023-Mar-18 00:00:00.0000, 3.207942141344624E+08, -1.905202167997863E+08, 1.084813740482027E+07,
2460028.500000000, A.D. 2023-Mar-25 00:00:00.0000, 3.261474686914467E+08, -1.811590911103133E+08, 9.888566436152391E+06,
2460035.500000000, A.D. 2023-Apr-01 00:00:00.0000, 3.311961985759227E+08, -1.716287404449331E+08, 8.919756734116234E+06,
2460042.500000000, A.D. 2023-Apr-08 00:00:00.0000, 3.359354890712913E+08, -1.619379559857699E+08, 7.942607080227889E+06,
2460049.500000000, A.D. 2023-Apr-15 00:00:00.0000, 3.403606218875836E+08, -1.520956462599297E+08, 6.958023359651856E+06,
2460056.500000000, A.D. 2023-Apr-22 00:00:00.0000, 3.444670746458611E+08, -1.421108377818837E+08, 5.966918584270798E+06,
2460063.500000000, A.D. 2023-Apr-29 00:00:00.0000, 3.482505228843379E+08, -1.319926762533769E+08, 4.970212674433209E+06,
2460070.500000000, A.D. 2023-May-06 00:00:00.0000, 3.517068428354813E+08, -1.217504265210751E+08, 3.968832304696746E+06,
2460077.500000000, A.D. 2023-May-13 00:00:00.0000, 3.548321140069966E+08, -1.113934721678913E+08, 2.963710828409493E+06,
2460084.500000000, A.D. 2023-May-20 00:00:00.0000, 3.576226218095435E+08, -1.009313152109853E+08, 1.955788217562810E+06,
2460091.500000000, A.D. 2023-May-27 00:00:00.0000, 3.600748604328526E+08, -9.037357591692680E+07, 9.460109956643544E+05,
2460098.500000000, A.D. 2023-Jun-03 00:00:00.0000, 3.621855360358746E+08, -7.972999268835166E+07, -6.466784170519933E+04,
2460105.500000000, A.D. 2023-Jun-10 00:00:00.0000, 3.639515702827658E+08, -6.901042201571216E+07, -1.075288924204096E+06,
2460112.500000000, A.D. 2023-Jun-17 00:00:00.0000, 3.653701043210489E+08, -5.822483853399450E+07, -2.084886637398571E+06,
2460119.500000000, A.D. 2023-Jun-24 00:00:00.0000, 3.664385035264723E+08, -4.738333510766894E+07, -3.092489314291563E+06,
2460126.500000000, A.D. 2023-Jul-01 00:00:00.0000, 3.671543632705023E+08, -3.649612209073316E+07, -4.097119445829712E+06,
2460133.500000000, A.D. 2023-Jul-08 00:00:00.0000, 3.675155140446717E+08, -2.557352491263179E+07, -5.097793691588279E+06,
2460140.500000000, A.D. 2023-Jul-15 00:00:00.0000, 3.675200246755952E+08, -1.462598279699184E+07, -6.093522807028329E+06,
2460147.500000000, A.D. 2023-Jul-22 00:00:00.0000, 3.671662071543685E+08, -3.664049624148627E+06, -7.083311897902372E+06,
$$EOE